NORAD_CAT_ID,OBJECT_NAME,OBJECT_TYPE,EPOCH,MEAN_MOTION,ECCENTRICITY,INCLINATION,RA_OF_ASC_NODE,ARG_OF_PERICENTER,MEAN_ANOMALY,BSTAR,MEAN_MOTION_DOT,MEAN_MOTION_DDOT,TLE_LINE0,TLE_LINE1,TLE_LINE2,SEMIMAJOR_AXIS,PERIOD,APOGEE,PERIGEE,DECAYED
53250.0,STARLINK-4059,PAYLOAD,2022-08-18 08:00:01,15.73210723,0.0002996999999999,53.2184,280.6228,18.3172,77.7581,7.751e-05,0.00010276,0.0,0 STARLINK-4059,1 53250U 22086J   22230.33334491  .00010276  00000-0  77510-4 0  9992,2 53250  53.2184 280.6228 0002997  18.3172  77.7581 15.73210723  4535,6727.865,91.533,351.746,347.713,0.0
53250.0,STARLINK-4059,PAYLOAD,2022-08-18 14:00:01,15.73232477,0.0003135,53.2183,279.3868,16.5675,56.2349,0.00012601,0.00017126,0.0,0 STARLINK-4059,1 53250U 22086J   22230.58334491  .00017126  00000-0  12601-3 0  9999,2 53250  53.2183 279.3868 0003135  16.5675  56.2349 15.73232477  1308,6727.803000000001,91.531,351.777,347.55800000000005,0.0
53250.0,STARLINK-4059,PAYLOAD,2022-08-18 22:00:00,15.73195337,0.0002908999999999,53.2185,277.7351,15.3467,146.445,0.00039598,0.00055316,0.0,0 STARLINK-4059,1 53250U 22086J   22230.91667824  .00055316  00000-0  39598-3 0  9992,2 53250  53.2185 277.7351 0002909  15.3467 146.4450 15.73195337  1301,6727.908,91.533,351.731,347.816,0.0
53250.0,STARLINK-4059,PAYLOAD,2022-08-19 14:00:01,15.73139998,0.0003252,53.2186,274.4381,16.7783,322.9371,0.00054105,0.00075819,0.0,0 STARLINK-4059,1 53250U 22086J   22231.58334491  .00075819  00000-0  54105-3 0  9998,2 53250  53.2186 274.4381 0003252  16.7783 322.9371 15.73139998  1301,6728.066,91.537,352.119,347.74300000000005,0.0
53250.0,STARLINK-4059,PAYLOAD,2022-08-19 22:00:00,15.73179999,0.0003002,53.2187,272.7869,15.4777,53.1124,-3.9689e-05,-6.185e-05,0.0,0 STARLINK-4059,1 53250U 22086J   22231.91667824 -.00006185  00000-0 -39689-4 0  9997,2 53250  53.2187 272.7869 0003002  15.4777  53.1124 15.73179999  4785,6727.9519999999975,91.534,351.837,347.797,0.0
53250.0,STARLINK-4059,PAYLOAD,2022-08-20 14:00:01,15.73150515,0.0003262,53.218,269.4903,13.3057,233.0786,0.00061121,0.00085873,0.0,0 STARLINK-4059,1 53250U 22086J   22232.58334491  .00085873  00000-0  61121-3 0  9996,2 53250  53.2180 269.4903 0003262  13.3057 233.0786 15.73150515  1307,6728.036,91.536,352.096,347.707,0.0
53250.0,STARLINK-4059,PAYLOAD,2022-08-20 22:00:00,15.73181669,0.0003012,53.2182,267.8389,14.5941,320.7009,0.00046351,0.00064893,0.0,0 STARLINK-4059,1 53250U 22086J   22232.91667824  .00064893  00000-0  46351-3 0  9999,2 53250  53.2182 267.8389 0003012  14.5941 320.7009 15.73181669  1303,6727.946999999999,91.534,351.839,347.786,0.0
53250.0,STARLINK-4059,PAYLOAD,2022-08-21 14:00:01,15.73181932,0.0003302,53.2182,264.5421,13.0164,140.2027,0.00047692,0.00066807,0.0,0 STARLINK-4059,1 53250U 22086J   22233.58334491  .00066807  00000-0  47692-3 0  9990,2 53250  53.2182 264.5421 0003302  13.0164 140.2027 15.73181932  5040,6727.946999999999,91.534,352.033,347.59,0.0
53250.0,STARLINK-4059,PAYLOAD,2022-08-21 22:00:00,15.73210043,0.0003103,53.2182,262.8907,14.8595,227.2958,0.00025588,0.00035463,0.0,0 STARLINK-4059,1 53250U 22086J   22233.91667824  .00035463  00000-0  25588-3 0  9990,2 53250  53.2182 262.8907 0003103  14.8595 227.2958 15.73210043  1306,6727.8669999999975,91.533,351.819,347.644,0.0
53250.0,STARLINK-4059,PAYLOAD,2022-08-22 06:00:00,15.73223379,0.000325,53.218,261.2424,18.5975,312.5187,-0.00028263,-0.00040151,0.0,0 STARLINK-4059,1 53250U 22086J   22234.25001157 -.00040151  00000-0 -28263-3 0  9994,2 53250  53.2180 261.2424 0003250  18.5975 312.5187 15.73223379  5141,6727.829000000002,91.532,351.88,347.50699999999995,0.0
53250.0,STARLINK-4059,PAYLOAD,2022-08-22 12:00:00,15.73201978,0.0003412,53.2176,260.0066,17.7396,290.0814,-0.00015419,-0.00022215,0.0,0 STARLINK-4059,1 53250U 22086J   22234.50001157 -.00022215  00000-0 -15419-3 0  9992,2 53250  53.2176 260.0066 0003412  17.7396 290.0814 15.73201978  1305,6727.89,91.533,352.05,347.459,0.0
53250.0,STARLINK-4059,PAYLOAD,2022-08-22 22:00:00,15.73137569,0.0003105,53.2174,257.9426,16.73,132.2473,0.0005406,0.00075745,0.0,0 STARLINK-4059,1 53250U 22086J   22234.91667824  .00075745  00000-0  54060-3 0  9995,2 53250  53.2174 257.9426 0003105  16.7300 132.2473 15.73137569  1303,6728.073,91.537,352.027,347.849,0.0
53250.0,STARLINK-4059,PAYLOAD,2022-08-23 06:00:00,15.73199473,0.0003271,53.2177,256.2945,18.5166,219.3441,2.6185e-05,3.054e-05,0.0,0 STARLINK-4059,1 53250U 22086J   22235.25001157  .00003054  00000-0  26185-4 0  9996,2 53250  53.2177 256.2945 0003271  18.5166 219.3441 15.73199473  5306,6727.897,91.533,351.962,347.561,0.0
53250.0,STARLINK-4059,PAYLOAD,2022-08-23 14:00:01,15.73198587,0.0003451,53.2173,254.6458,16.8323,309.9436,0.00031672,0.00044069,0.0,0 STARLINK-4059,1 53250U 22086J   22235.58334491  .00044069  00000-0  31672-3 0  9999,2 53250  53.2173 254.6458 0003451  16.8323 309.9436 15.73198587  1300,6727.899,91.533,352.086,347.44199999999995,0.0
53250.0,STARLINK-4059,PAYLOAD,2022-08-23 22:00:01,15.73222737,0.000319,53.2174,252.9944,17.7356,38.0503,-0.00016975,-0.00024407,0.0,0 STARLINK-4059,1 53250U 22086J   22235.91668981 -.00024407  00000-0 -16975-3 0  9995,2 53250  53.2174 252.9944 0003190  17.7356  38.0503 15.73222737  1308,6727.83,91.532,351.842,347.5490000000001,0.0
53250.0,STARLINK-4059,PAYLOAD,2022-08-24 14:00:01,15.73205156,0.0003398999999999,53.2163,249.6975,16.5253,217.0814,0.00018613,0.00025591,0.0,0 STARLINK-4059,1 53250U 22086J   22236.58334491  .00025591  00000-0  18613-3 0  9999,2 53250  53.2163 249.6975 0003399  16.5253 217.0814 15.73205156  1307,6727.88,91.533,352.032,347.459,0.0
53250.0,STARLINK-4059,PAYLOAD,2022-08-24 16:00:00,15.73222349,0.0003331999999999,53.2165,249.2845,16.9309,328.9042,-5.3563e-05,-8.143e-05,0.0,0 STARLINK-4059,1 53250U 22086J   22236.66667824 -.00008143  00000-0 -53563-4 0  9997,2 53250  53.2165 249.2845 0003332  16.9309 328.9042 15.73222349  5520,6727.831,91.532,351.93800000000016,347.455,0.0
53250.0,STARLINK-4059,PAYLOAD,2022-08-24 22:00:00,15.73206827,0.0003126999999999,53.2165,248.046,17.4988,305.0554,0.00029834,0.00041475,0.0,0 STARLINK-4059,1 53250U 22086J   22236.91667824  .00041475  00000-0  29834-3 0  9991,2 53250  53.2165 248.0460 0003127  17.4988 305.0554 15.73206827  1300,6727.876,91.533,351.845,347.63699999999994,0.0
53250.0,STARLINK-4059,PAYLOAD,2022-08-25 14:00:01,15.73199416,0.0003381,53.2166,244.7489,14.4734,125.963,0.00011722,0.00015863,0.0,0 STARLINK-4059,1 53250U 22086J   22237.58334491  .00015863  00000-0  11722-3 0  9995,2 53250  53.2166 244.7489 0003381  14.4734 125.9630 15.73199416  1302,6727.897,91.533,352.037,347.487,0.0
53250.0,STARLINK-4059,PAYLOAD,2022-08-25 18:00:00,15.73195001,0.0003128999999999,53.2168,243.923,14.5003,350.4388,7.0044e-05,9.218e-05,0.0,0 STARLINK-4059,1 53250U 22086J   22237.75001157  .00009218  00000-0  70044-4 0  9994,2 53250  53.2168 243.9230 0003129  14.5003 350.4388 15.73195001  5696,6727.909000000002,91.533,351.88,347.6690000000001,0.0
53250.0,STARLINK-4059,PAYLOAD,2022-08-25 22:00:00,15.7318025,0.0003063,53.2166,243.0975,14.9489,214.4572,0.00044941,0.00062881,0.0,0 STARLINK-4059,1 53250U 22086J   22237.91667824  .00062881  00000-0  44941-3 0  9992,2 53250  53.2166 243.0975 0003063  14.9489 214.4572 15.73180250  1308,6727.951,91.534,351.87699999999984,347.756,0.0
53250.0,STARLINK-4059,PAYLOAD,2022-08-26 14:00:01,15.73189303,0.0003286999999999,53.2158,239.8002,12.538,34.7933,0.0001025,0.00013783,0.0,0 STARLINK-4059,1 53250U 22086J   22238.58335648  .00013783  00000-0  10250-3 0  9995,2 53250  53.2158 239.8002 0003287  12.5380  34.7933 15.73189303  1307,6727.926,91.534,352.00199999999984,347.579,0.0
53250.0,STARLINK-4059,PAYLOAD,2022-08-26 20:00:01,15.73168468,0.0003024,53.2161,238.5616,14.0319,9.9269,0.00049057,0.0006871,0.0,0 STARLINK-4059,1 53250U 22086J   22238.83334491  .00068710  00000-0  49057-3 0  9995,2 53250  53.2161 238.5616 0003024  14.0319   9.9269 15.73168468  5877,6727.985,91.535,351.885,347.816,0.0
53250.0,STARLINK-4059,PAYLOAD,2022-08-26 22:00:00,15.73177384,0.0002998,53.216,238.149,14.5623,121.6228,0.00049413,0.00069244,0.0,0 STARLINK-4059,1 53250U 22086J   22238.91667824  .00069244  00000-0  49413-3 0  9992,2 53250  53.2160 238.1490 0002998  14.5623 121.6228 15.73177384  1302,6727.96,91.534,351.842,347.80800000000005,0.0
53250.0,STARLINK-4059,PAYLOAD,2022-08-27 14:00:01,15.73198509,0.0003237,53.2164,234.8515,10.995,303.0797,5.5707e-05,7.203e-05,0.0,0 STARLINK-4059,1 53250U 22086J   22239.58334491  .00007203  00000-0  55707-4 0  9998,2 53250  53.2164 234.8515 0003237  10.9950 303.0797 15.73198509  1306,6727.899,91.533,351.94199999999995,347.587,0.0
53250.0,STARLINK-4059,PAYLOAD,2022-08-27 22:00:00,15.73199954,0.0003037,53.2165,233.2004,12.352,30.6478,0.00022086,0.00030492,0.0,0 STARLINK-4059,1 53250U 22086J   22239.91667824  .00030492  00000-0  22086-3 0  9993,2 53250  53.2165 233.2004 0003037  12.3520  30.6478 15.73199954  1304,6727.895,91.533,351.80400000000014,347.717,0.0
53250.0,STARLINK-4059,PAYLOAD,2022-08-28 14:00:01,15.7322082,0.0003201,53.2159,229.9029,10.5799,210.305,3.3664e-05,4.109e-05,0.0,0 STARLINK-4059,1 53250U 22086J   22240.58334491  .00004109  00000-0  33664-4 0  9990,2 53250  53.2159 229.9029 0003201  10.5799 210.3050 15.73220820  1307,6727.8359999999975,91.532,351.85400000000016,347.547,0.0
53250.0,STARLINK-4059,PAYLOAD,2022-08-28 22:00:00,15.73238459,0.0002976,53.2163,228.2517,13.6939,296.1369,-0.00019583,-0.00028067,0.0,0 STARLINK-4059,1 53250U 22086J   22240.91667824 -.00028067  00000-0 -19583-3 0  9990,2 53250  53.2163 228.2517 0002976  13.6939 296.1369 15.73238459  6198,6727.786,91.531,351.653,347.648,0.0
53250.0,STARLINK-4059,PAYLOAD,2022-08-29 06:00:02,15.73216129,0.0003211,53.2165,226.6042,13.9739,24.8754,-0.00078948,-0.00110097,0.0,0 STARLINK-4059,1 53250U 22086J   22241.25002315 -.00110097  00000-0 -78948-3 0  9991,2 53250  53.2165 226.6042 0003211  13.9739  24.8754 15.73216129  6250,6727.849,91.532,351.875,347.55400000000014,0.0
